{"type":"FeatureCollection","name":"census_units","crs":{"type":"name","properties":{"name":"urn:ogc:def:crs:OGC::CRS84"}},"features":[
{"type":"Feature","properties":{"unit_id":"00001","province_id":"10","weight":100},"geometry":{"type":"Polygon","coordinates":[[[0.0008983153,0.0008983153],[0.0071865223,0.0008983153],[0.0071865223,0.0071865223],[0.0008983153,0.0071865223],[0.0008983153,0.0008983153]]]}},
{"type":"Feature","properties":{"unit_id":"00002","province_id":"10","weight":50},"geometry":{"type":"Polygon","coordinates":[[[0.0071865223,0.0017966306],[0.011677,0.0017966306],[0.011677,0.0062882069],[0.0071865223,0.0062882069],[0.0071865223,0.0017966306]]]}},
{"type":"Feature","properties":{"unit_id":"00003","province_id":"99","weight":25},"geometry":{"type":"Polygon","coordinates":[[[0.0269494585,0.0269494575],[0.031440,0.0269494575],[0.031440,0.031440],[0.0269494585,0.031440],[0.0269494585,0.0269494575]]]}},
{"type":"Feature","properties":{"unit_id":"00004","province_id":"10","weight":20},"geometry":{"type":"Polygon","coordinates":[[[0.0017966306,0.0017966306],[0.0053898917,0.0053898917],[0.0017966306,0.0053898917],[0.0053898917,0.0017966306],[0.0017966306,0.0017966306]]]}},
{"type":"Feature","properties":{"unit_id":"00005","province_id":"10","weight":10},"geometry":{"type":"Polygon","coordinates":[[[0.0026949459,0.0026949459],[0.0035932611,0.0026949459],[0.0035932611,0.0035932611],[0.0026949459,0.0035932611],[0.0026949459,0.0026949459]]]}},
{"type":"Feature","properties":{"unit_id":"00005","province_id":"10","weight":15},"geometry":{"type":"Polygon","coordinates":[[[0.0044915764,0.0026949459],[0.0053898917,0.0026949459],[0.0053898917,0.0035932611],[0.0044915764,0.0035932611],[0.0044915764,0.0026949459]]]}}
]}
